start=new Date('2023-04-28T00:00:00.000Z').valueOf();
sats=[{"OBJECT_NAME":"STARLINK-3739","MEAN_MOTION_DOT":"0.00007902","FILE":"3894751","COUNTRY_CODE":"US","MEAN_ELEMENT_THEORY":"SGP4","EPHEMERIS_TYPE":"0","ELEMENT_SET_NO":"999","BSTAR":"0.00051379000000","ECCENTRICITY":"0.00013770","NORAD_CAT_ID":"52266","MEAN_MOTION":"15.08855613","CENTER_NAME":"EARTH","EPOCH":"2023-04-27T12:16:41.706912","PERIOD":"95.437","ARG_OF_PERICENTER":"76.0434","APOAPSIS":"540.650","OBJECT_ID":"2022-041F","TLE_LINE1":"1 52266U 22041F   23117.51159383  .00007902  00000-0  51379-3 0  9995","TLE_LINE2":"2 52266  53.2150 130.0825 0001377  76.0434 284.0711 15.08855613 56275","REF_FRAME":"TEME","INCLINATION":"53.2150","TIME_SYSTEM":"UTC","CLASSIFICATION_TYPE":"U","SITE":"AFETR","LAUNCH_DATE":"2022-04-21","OBJECT_TYPE":"PAYLOAD","MEAN_ANOMALY":"284.0711","REV_AT_EPOCH":"5627","RCS_SIZE":"LARGE","PERIAPSIS":"538.745","MEAN_MOTION_DDOT":"0.0000000000000","DECAY_DATE":null,"GP_ID":"230837008","RA_OF_ASC_NODE":"130.0825","SEMIMAJOR_AXIS":"6917.833"},{"PERIAPSIS":"538.902","RCS_SIZE":"LARGE","MEAN_MOTION_DDOT":"0.0000000000000","GP_ID":"230838258","DECAY_DATE":null,"RA_OF_ASC_NODE":"130.3951","SEMIMAJOR_AXIS":"6917.909","TIME_SYSTEM":"UTC","INCLINATION":"53.2162","SITE":"AFETR","CLASSIFICATION_TYPE":"U","LAUNCH_DATE":"2022-04-21","OBJECT_TYPE":"PAYLOAD","REV_AT_EPOCH":"5626","MEAN_ANOMALY":"257.6166","MEAN_MOTION":"15.08830521","CENTER_NAME":"EARTH","ARG_OF_PERICENTER":"102.4967","PERIOD":"95.438","EPOCH":"2023-04-27T10:36:01.486368","APOAPSIS":"540.647","OBJECT_ID":"2022-041G","TLE_LINE1":"1 52267U 22041G   23117.44168387  .00001276  00000-0  98264-4 0  9995","REF_FRAME":"TEME","TLE_LINE2":"2 52267  53.2162 130.3951 0001261 102.4967 257.6166 15.08830521 56269","OBJECT_NAME":"STARLINK-3748","FILE":"3894751","MEAN_MOTION_DOT":"0.00001276","COUNTRY_CODE":"US","MEAN_ELEMENT_THEORY":"SGP4","EPHEMERIS_TYPE":"0","ECCENTRICITY":"0.00012610","NORAD_CAT_ID":"52267","ELEMENT_SET_NO":"999","BSTAR":"0.00009826400000"},{"RA_OF_ASC_NODE":"130.4510","SEMIMAJOR_AXIS":"6917.890","PERIAPSIS":"538.911","RCS_SIZE":"LARGE","MEAN_MOTION_DDOT":"0.0000000000000","GP_ID":"230838007","DECAY_DATE":null,"LAUNCH_DATE":"2022-04-21","OBJECT_TYPE":"PAYLOAD","MEAN_ANOMALY":"265.8986","REV_AT_EPOCH":"5626","INCLINATION":"53.2154","TIME_SYSTEM":"UTC","SITE":"AFETR","CLASSIFICATION_TYPE":"U","OBJECT_ID":"2022-041H","TLE_LINE1":"1 52268U 22041H   23117.43159352  .00002025  00000-0  14526-3 0  9998","REF_FRAME":"TEME","TLE_LINE2":"2 52268  53.2154 130.4510 0001220  94.2146 265.8986 15.08837003 56268","MEAN_MOTION":"15.08837003","CENTER_NAME":"EARTH","PERIOD":"95.438","ARG_OF_PERICENTER":"94.2146","EPOCH":"2023-04-27T10:21:29.680128","APOAPSIS":"540.599","MEAN_ELEMENT_THEORY":"SGP4","EPHEMERIS_TYPE":"0","ECCENTRICITY":"0.00012200","NORAD_CAT_ID":"52268","BSTAR":"0.00014526000000","ELEMENT_SET_NO":"999","OBJECT_NAME":"STARLINK-3746","FILE":"3894751","MEAN_MOTION_DOT":"0.00002025","COUNTRY_CODE":"US"},{"CLASSIFICATION_TYPE":"U","SITE":"AFETR","INCLINATION":"53.2163","TIME_SYSTEM":"UTC","OBJECT_TYPE":"PAYLOAD","MEAN_ANOMALY":"264.5505","REV_AT_EPOCH":"5627","LAUNCH_DATE":"2022-04-21","DECAY_DATE":null,"GP_ID":"230836758","RCS_SIZE":"LARGE","PERIAPSIS":"538.947","MEAN_MOTION_DDOT":"0.0000000000000","SEMIMAJOR_AXIS":"6917.874","RA_OF_ASC_NODE":"130.1124","MEAN_MOTION_DOT":"0.00004861","FILE":"3894751","COUNTRY_CODE":"US","OBJECT_NAME":"STARLINK-3791","EPHEMERIS_TYPE":"0","BSTAR":"0.00032327000000","ELEMENT_SET_NO":"999","NORAD_CAT_ID":"52269","ECCENTRICITY":"0.00011440","MEAN_ELEMENT_THEORY":"SGP4","EPOCH":"2023-04-27T12:06:06.266016","PERIOD":"95.437","ARG_OF_PERICENTER":"95.5618","APOAPSIS":"540.530","MEAN_MOTION":"15.08842156","CENTER_NAME":"EARTH","TLE_LINE1":"1 52269U 22041J   23117.50423919  .00004861  00000-0  32327-3 0  9999","TLE_LINE2":"2 52269  53.2163 130.1124 0001144  95.5618 264.5505 15.08842156 56279","REF_FRAME":"TEME","OBJECT_ID":"2022-041J"},{"REF_FRAME":"TEME","TLE_LINE2":"2 52270  53.2156 130.4752 0001154  96.3110 263.8013 15.08837996 56261","TLE_LINE1":"1 52270U 22041K   23117.43063596  .00001771  00000-0  12931-3 0  9990","OBJECT_ID":"2022-041K","APOAPSIS":"540.550","PERIOD":"95.438","EPOCH":"2023-04-27T10:20:06.946944","ARG_OF_PERICENTER":"96.3110","CENTER_NAME":"EARTH","MEAN_MOTION":"15.08837996","NORAD_CAT_ID":"52270","ECCENTRICITY":"0.00011540","ELEMENT_SET_NO":"999","BSTAR":"0.00012931000000","EPHEMERIS_TYPE":"0","MEAN_ELEMENT_THEORY":"SGP4","COUNTRY_CODE":"US","FILE":"3894751","MEAN_MOTION_DOT":"0.00001771","OBJECT_NAME":"STARLINK-3804","SEMIMAJOR_AXIS":"6917.887","RA_OF_ASC_NODE":"130.4752","GP_ID":"230837508","DECAY_DATE":null,"MEAN_MOTION_DDOT":"0.0000000000000","PERIAPSIS":"538.953","RCS_SIZE":"LARGE","MEAN_ANOMALY":"263.8013","REV_AT_EPOCH":"5626","OBJECT_TYPE":"PAYLOAD","LAUNCH_DATE":"2022-04-21","SITE":"AFETR","CLASSIFICATION_TYPE":"U","INCLINATION":"53.2156","TIME_SYSTEM":"UTC"},{"PERIOD":"95.438","EPOCH":"2023-04-27T10:25:24.822048","ARG_OF_PERICENTER":"91.5679","APOAPSIS":"540.849","MEAN_MOTION":"15.08837487","CENTER_NAME":"EARTH","TLE_LINE1":"1 52271U 22041L   23117.43431507  .00001444  00000-0  10878-3 0  9997","REF_FRAME":"TEME","TLE_LINE2":"2 52271  53.2169 130.4256 0001584  91.5679 268.5495 15.08837487 56260","OBJECT_ID":"2022-041L","FILE":"3894751","MEAN_MOTION_DOT":"0.00001444","COUNTRY_CODE":"US","OBJECT_NAME":"STARLINK-3788","EPHEMERIS_TYPE":"0","ECCENTRICITY":"0.00015840","NORAD_CAT_ID":"52271","BSTAR":"0.00010878000000","ELEMENT_SET_NO":"999","MEAN_ELEMENT_THEORY":"SGP4","GP_ID":"230837760","DECAY_DATE":null,"PERIAPSIS":"538.657","RCS_SIZE":"LARGE","MEAN_MOTION_DDOT":"0.0000000000000","SEMIMAJOR_AXIS":"6917.888","RA_OF_ASC_NODE":"130.4256","SITE":"AFETR","CLASSIFICATION_TYPE":"U","INCLINATION":"53.2169","TIME_SYSTEM":"UTC","OBJECT_TYPE":"PAYLOAD","REV_AT_EPOCH":"5626","MEAN_ANOMALY":"268.5495","LAUNCH_DATE":"2022-04-21"},{"INCLINATION":"53.2163","TIME_SYSTEM":"UTC","SITE":"AFETR","CLASSIFICATION_TYPE":"U","LAUNCH_DATE":"2022-04-21","OBJECT_TYPE":"PAYLOAD","REV_AT_EPOCH":"5751","MEAN_ANOMALY":"258.5274","PERIAPSIS":"538.950","RCS_SIZE":"LARGE","MEAN_MOTION_DDOT":"0.0000000000000","GP_ID":"230813527","DECAY_DATE":null,"RA_OF_ASC_NODE":"129.8715","SEMIMAJOR_AXIS":"6917.878","OBJECT_NAME":"STARLINK-3781","FILE":"3894735","MEAN_MOTION_DOT":"0.00002262","COUNTRY_CODE":"US","MEAN_ELEMENT_THEORY":"SGP4","EPHEMERIS_TYPE":"0","ECCENTRICITY":"0.00011460","NORAD_CAT_ID":"52272","ELEMENT_SET_NO":"999","BSTAR":"0.00016018000000","MEAN_MOTION":"15.08840780","CENTER_NAME":"EARTH","ARG_OF_PERICENTER":"101.5847","PERIOD":"95.438","EPOCH":"2023-04-27T13:20:16.942560","APOAPSIS":"540.536","OBJECT_ID":"2022-041M","TLE_LINE1":"1 52272U 22041M   23117.55575165  .00002262  00000-0  16018-3 0  9991","REF_FRAME":"TEME","TLE_LINE2":"2 52272  53.2163 129.8715 0001146 101.5847 258.5274 15.08840780 57513"},{"PERIOD":"95.438","ARG_OF_PERICENTER":"73.9821","EPOCH":"2023-04-27T09:28:23.788992","APOAPSIS":"540.662","MEAN_MOTION":"15.08833547","CENTER_NAME":"EARTH","TLE_LINE1":"1 52273U 22041N   23117.39471978  .00002278  00000-0  16121-3 0  9993","REF_FRAME":"TEME","TLE_LINE2":"2 52273  53.2159 120.2513 0001296  73.9821 286.1314 15.08833547 56402","OBJECT_ID":"2022-041N","FILE":"3894751","MEAN_MOTION_DOT":"0.00002278","COUNTRY_CODE":"US","OBJECT_NAME":"STARLINK-3782","EPHEMERIS_TYPE":"0","ECCENTRICITY":"0.00012960","NORAD_CAT_ID":"52273","BSTAR":"0.00016121000000","ELEMENT_SET_NO":"999","MEAN_ELEMENT_THEORY":"SGP4","GP_ID":"230837258","DECAY_DATE":null,"PERIAPSIS":"538.869","RCS_SIZE":"LARGE","MEAN_MOTION_DDOT":"0.0000000000000","SEMIMAJOR_AXIS":"6917.900","RA_OF_ASC_NODE":"120.2513","SITE":"AFETR","CLASSIFICATION_TYPE":"U","INCLINATION":"53.2159","TIME_SYSTEM":"UTC","OBJECT_TYPE":"PAYLOAD","MEAN_ANOMALY":"286.1314","REV_AT_EPOCH":"5640","LAUNCH_DATE":"2022-04-21"},{"RA_OF_ASC_NODE":"129.9007","SEMIMAJOR_AXIS":"6917.903","RCS_SIZE":"LARGE","PERIAPSIS":"538.834","MEAN_MOTION_DDOT":"0.0000000000000","DECAY_DATE":null,"GP_ID":"230813522","LAUNCH_DATE":"2022-04-21","OBJECT_TYPE":"PAYLOAD","REV_AT_EPOCH":"5750","MEAN_ANOMALY":"290.2521","TIME_SYSTEM":"UTC","INCLINATION":"53.2158","CLASSIFICATION_TYPE":"U","SITE":"AFETR","OBJECT_ID":"2022-041P","TLE_LINE1":"1 52274U 22041P   23117.55208942  .00003732  00000-0  25248-3 0  9997","TLE_LINE2":"2 52274  53.2158 129.9007 0001350  69.8616 290.2521 15.08832687 57505","REF_FRAME":"TEME","MEAN_MOTION":"15.08832687","CENTER_NAME":"EARTH","EPOCH":"2023-04-27T13:15:00.525888","PERIOD":"95.438","ARG_OF_PERICENTER":"69.8616","APOAPSIS":"540.702","MEAN_ELEMENT_THEORY":"SGP4","EPHEMERIS_TYPE":"0","ELEMENT_SET_NO":"999","BSTAR":"0.00025248000000","ECCENTRICITY":"0.00013500","NORAD_CAT_ID":"52274","OBJECT_NAME":"STARLINK-3790","MEAN_MOTION_DOT":"0.00003732","FILE":"3894735","COUNTRY_CODE":"US"},{"CLASSIFICATION_TYPE":"U","SITE":"AFETR","TIME_SYSTEM":"UTC","INCLINATION":"53.2142","OBJECT_TYPE":"PAYLOAD","REV_AT_EPOCH":"5626","MEAN_ANOMALY":"286.8417","LAUNCH_DATE":"2022-04-21","DECAY_DATE":null,"GP_ID":"230838259","RCS_SIZE":"LARGE","PERIAPSIS":"538.909","MEAN_MOTION_DDOT":"0.0000000000000","SEMIMAJOR_AXIS":"6917.878","RA_OF_ASC_NODE":"130.4624","MEAN_MOTION_DOT":"0.00008079","FILE":"3894751","COUNTRY_CODE":"US","OBJECT_NAME":"STARLINK-3784","EPHEMERIS_TYPE":"0","ELEMENT_SET_NO":"999","BSTAR":"0.00052512000000","ECCENTRICITY":"0.00012060","NORAD_CAT_ID":"52275","MEAN_ELEMENT_THEORY":"SGP4","PERIOD":"95.438","ARG_OF_PERICENTER":"73.2708","EPOCH":"2023-04-27T10:14:50.227008","APOAPSIS":"540.578","MEAN_MOTION":"15.08840706","CENTER_NAME":"EARTH","TLE_LINE1":"1 52275U 22041Q   23117.42697022  .00008079  00000-0  52512-3 0  9998","TLE_LINE2":"2 52275  53.2142 130.4624 0001206  73.2708 286.8417 15.08840706 56260","REF_FRAME":"TEME","OBJECT_ID":"2022-041Q"}];
